NORAD_CAT_ID,OBJECT_NAME,OBJECT_TYPE,EPOCH,MEAN_MOTION,ECCENTRICITY,INCLINATION,RA_OF_ASC_NODE,ARG_OF_PERICENTER,MEAN_ANOMALY,BSTAR,MEAN_MOTION_DOT,MEAN_MOTION_DDOT,TLE_LINE0,TLE_LINE1,TLE_LINE2,SEMIMAJOR_AXIS,PERIOD,APOGEE,PERIGEE,DECAYED
51461.0,STARLINK-3181,PAYLOAD,2023-06-10 02:24:28,15.08833826,9.63e-05,53.2173,104.4055,74.5753,285.5345,6.7409e-05,7.85e-06,0.0,0 STARLINK-3181,1 51461U 22010F   23161.10032534  .00000785  00000-0  67409-4 0  9993,2 51461  53.2173 104.4055 0000963  74.5753 285.5345 15.08833826 75815,6917.899,95.438,540.43,539.098,0.0
51461.0,STARLINK-3181,PAYLOAD,2023-06-10 05:35:14,15.08840117,0.0001217,53.2173,103.8094,90.0355,270.0776,6.6432e-05,7.7e-06,0.0,0 STARLINK-3181,1 51461U 22010F   23161.23280148  .00000770  00000-0  66432-4 0  9992,2 51461  53.2173 103.8094 0001217  90.0355 270.0776 15.08840117 75835,6917.88,95.438,540.587,538.903,0.0
51461.0,STARLINK-3181,PAYLOAD,2023-06-10 13:32:10,15.08835852,0.0001208,53.2176,102.3226,91.4991,268.6139,1.1734e-05,-1.01e-06,0.0,0 STARLINK-3181,1 51461U 22010F   23161.56400636 -.00000101  00000-0  11734-4 0  9998,2 51461  53.2176 102.3226 0001208  91.4991 268.6139 15.08835852 75386,6917.893,95.438,540.594,538.922,0.0
51461.0,STARLINK-3181,PAYLOAD,2023-06-10 19:53:42,15.08836527,0.0001351,53.2175,101.132,92.456,267.6586,-3.3433e-06,-3.41e-06,0.0,0 STARLINK-3181,1 51461U 22010F   23161.82896737 -.00000341  00000-0 -33433-5 0  9996,2 51461  53.2175 101.1320 0001351  92.4560 267.6586 15.08836527 75429,6917.891,95.438,540.691,538.821,0.0
51461.0,STARLINK-3181,PAYLOAD,2023-06-11 05:26:01,15.08845266,0.0001169,53.2172,99.349,101.0517,259.0606,-1.6181e-05,-5.45e-06,0.0,0 STARLINK-3181,1 51461U 22010F   23162.22640142 -.00000545  00000-0 -16181-4 0  9994,2 51461  53.2172  99.3490 0001169 101.0517 259.0606 15.08845266 75987,6917.864,95.437,540.538,538.921,0.0
51461.0,STARLINK-3181,PAYLOAD,2023-06-11 13:22:56,15.08848252,0.0001169,53.2174,97.8627,96.2672,263.8453,2.3829e-05,9.1e-07,0.0,0 STARLINK-3181,1 51461U 22010F   23162.55759745  .00000091  00000-0  23829-4 0  9991,2 51461  53.2174  97.8627 0001169  96.2672 263.8453 15.08848252 75533,6917.855,95.437,540.529,538.911,0.0
51461.0,STARLINK-3181,PAYLOAD,2023-06-12 05:16:47,15.0885007,0.0001299,53.2173,94.8891,87.2029,272.9112,0.00012735,1.74e-05,0.0,0 STARLINK-3181,1 51461U 22010F   23163.21999290  .00001740  00000-0  12735-3 0  9991,2 51461  53.2173  94.8891 0001299  87.2029 272.9112 15.08850070 75637,6917.85,95.437,540.613,538.816,0.0
51461.0,STARLINK-3181,PAYLOAD,2023-06-13 01:56:49,15.08836077,0.0001442,53.2177,91.0225,95.5318,264.5839,2.5109e-05,1.12e-06,0.0,0 STARLINK-3181,1 51461U 22010F   23164.08112655  .00000112  00000-0  25109-4 0  9991,2 51461  53.2177  91.0225 0001442  95.5318 264.5839 15.08836077 76268,6917.892,95.438,540.755,538.76,0.0
51461.0,STARLINK-3181,PAYLOAD,2023-06-13 05:07:35,15.08834194,0.0001339,53.2182,90.429,91.9114,268.2031,-2.8992e-05,-7.49e-06,0.0,0 STARLINK-3181,1 51461U 22010F   23164.21360922 -.00000749  00000-0 -28992-4 0  9999,2 51461  53.2182  90.4290 0001339  91.9114 268.2031 15.08834194 75787,6917.898,95.438,540.689,538.837,0.0
51461.0,STARLINK-3181,PAYLOAD,2023-06-14 01:47:36,15.08843047,0.0001164,53.2183,86.5628,96.4049,263.7076,7.3169e-06,-1.71e-06,0.0,0 STARLINK-3181,1 51461U 22010F   23165.07472225 -.00000171  00000-0  73169-5 0  9999,2 51461  53.2183  86.5628 0001164  96.4049 263.7076 15.08843047 76419,6917.871,95.437,540.541,538.931,0.0
51461.0,STARLINK-3181,PAYLOAD,2023-06-14 19:16:51,15.08833458,0.0001032,53.218,83.2928,96.142,263.9689,3.2207e-05,2.25e-06,0.0,0 STARLINK-3181,1 51461U 22010F   23165.80337030  .00000225  00000-0  32207-4 0  9990,2 51461  53.2180  83.2928 0001032  96.1420 263.9689 15.08833458 76021,6917.9,95.438,540.479,539.051,0.0
51461.0,STARLINK-3181,PAYLOAD,2023-06-15 01:38:23,15.08831407,0.0001076,53.2164,82.1053,105.4633,254.6478,6.2227e-06,-1.89e-06,0.0,0 STARLINK-3181,1 51461U 22010F   23166.06833303 -.00000189  00000-0  62227-5 0  9999,2 51461  53.2164  82.1053 0001076 105.4633 254.6478 15.08831407 76562,6917.907,95.438,540.516,539.027,0.0
51461.0,STARLINK-3181,PAYLOAD,2023-06-15 04:49:10,15.08833871,9.97e-05,53.2177,81.5089,96.9648,263.1458,2.8982e-05,1.73e-06,0.0,0 STARLINK-3181,1 51461U 22010F   23166.20081156  .00000173  00000-0  28982-4 0  9997,2 51461  53.2177  81.5089 0000997  96.9648 263.1458 15.08833871 76086,6917.899,95.438,540.454,539.074,0.0
51461.0,STARLINK-3181,PAYLOAD,2023-06-15 17:32:15,15.08833819,0.000101,53.2174,79.13,104.7492,255.3612,3.7561e-05,3.1e-06,0.0,0 STARLINK-3181,1 51461U 22010F   23166.73073334  .00000310  00000-0  37561-4 0  9990,2 51461  53.2174  79.1300 0001010 104.7492 255.3612 15.08833819 76160,6917.899,95.438,540.463,539.066,0.0
51461.0,STARLINK-3181,PAYLOAD,2023-06-16 01:29:10,15.08849003,0.0001,53.2173,77.6435,104.6026,255.5077,6.2753e-05,7.11e-06,0.0,0 STARLINK-3181,1 51461U 22010F   23167.06192380  .00000711  00000-0  62753-4 0  9996,2 51461  53.2173  77.6435 0001000 104.6026 255.5077 15.08849003 76712,6917.853,95.437,540.41,539.026,0.0
51461.0,STARLINK-3181,PAYLOAD,2023-06-16 11:01:29,15.08844404,0.0001343,53.2175,75.8593,83.2839,276.8306,3.4889e-05,2.67e-06,0.0,0 STARLINK-3181,1 51461U 22010F   23167.45936762  .00000267  00000-0  34889-4 0  9994,2 51461  53.2175  75.8593 0001343  83.2839 276.8306 15.08844404 76770,6917.867,95.437,540.661,538.803,0.0
51461.0,STARLINK-3181,PAYLOAD,2023-06-16 17:23:02,15.0883772,0.0001347,53.2167,74.6719,84.7888,275.3258,0.00012195,1.653e-05,0.0,0 STARLINK-3181,1 51461U 22010F   23167.72433058  .00001653  00000-0  12195-3 0  9999,2 51461  53.2167  74.6719 0001347  84.7888 275.3258 15.08837720 76315,6917.887,95.438,540.684,538.821,0.0
51461.0,STARLINK-3181,PAYLOAD,2023-06-16 22:09:12,15.08831146,9.58e-05,53.2174,73.7783,86.8823,273.2279,5.0666e-05,5.19e-06,0.0,0 STARLINK-3181,1 51461U 22010F   23167.92305650  .00000519  00000-0  50666-4 0  9993,2 51461  53.2174  73.7783 0000958  86.8823 273.2279 15.08831146 76847,6917.907,95.438,540.435,539.11,0.0
51461.0,STARLINK-3181,PAYLOAD,2023-06-17 02:55:20,15.08839579,0.0001025,53.2178,72.8854,81.921,278.1898,0.00011125,1.483e-05,0.0,0 STARLINK-3181,1 51461U 22010F   23168.12177069  .00001483  00000-0  11125-3 0  9994,2 51461  53.2178  72.8854 0001025  81.9210 278.1898 15.08839579 76874,6917.882,95.438,540.456,539.038,0.0
51461.0,STARLINK-3181,PAYLOAD,2023-06-17 10:52:17,15.08832344,9.49e-05,53.2164,71.3976,87.4543,272.6557,2.8692e-05,1.69e-06,0.0,0 STARLINK-3181,1 51461U 22010F   23168.45297820  .00000169  00000-0  28692-4 0  9996,2 51461  53.2164  71.3976 0000949  87.4543 272.6557 15.08832344 76427,6917.904,95.438,540.425,539.112,0.0
51461.0,STARLINK-3181,PAYLOAD,2023-06-17 20:24:36,15.08838015,0.0001107,53.2184,69.6123,96.9727,263.1391,-5.7895e-05,-1.209e-05,0.0,0 STARLINK-3181,1 51461U 22010F   23168.85041952 -.00001209  00000-0 -57895-4 0  9998,2 51461  53.2184  69.6123 0001107  96.9727 263.1391 15.08838015 76487,6917.886,95.438,540.517,538.986,0.0
51461.0,STARLINK-3181,PAYLOAD,2023-06-17 23:35:22,15.08838234,9.42e-05,53.2186,69.0179,98.6516,261.4583,-5.1884e-05,-1.113e-05,0.0,0 STARLINK-3181,1 51461U 22010F   23168.98289882 -.00001113  00000-0 -51884-4 0  9994,2 51461  53.2186  69.0179 0000942  98.6516 261.4583 15.08838234 76505,6917.886,95.438,540.402,539.099,0.0
51461.0,STARLINK-3181,PAYLOAD,2023-06-19 02:36:54,15.08855299,0.000102,53.2182,63.9638,91.4499,268.661,0.00020989,3.056e-05,0.0,0 STARLINK-3181,1 51461U 22010F   23170.10896145  .00003056  00000-0  20989-3 0  9994,2 51461  53.2182  63.9638 0001020  91.4499 268.6610 15.08855299 77177,6917.834,95.437,540.404,538.993,0.0
51461.0,STARLINK-3181,PAYLOAD,2023-06-20 02:27:42,15.08840394,0.0001239,53.2188,59.5039,85.4314,274.682,5.6399e-05,6.1e-06,0.0,0 STARLINK-3181,1 51461U 22010F   23171.10257552  .00000610  00000-0  56399-4 0  9996,2 51461  53.2188  59.5039 0001239  85.4314 274.6820 15.08840394 77327,6917.879,95.438,540.601,538.887,0.0
51461.0,STARLINK-3181,PAYLOAD,2023-06-20 19:56:56,15.08848541,0.0001115,53.2191,56.2311,88.054,272.0579,-2.3128e-05,-6.56e-06,0.0,0 STARLINK-3181,1 51461U 22010F   23171.83121122 -.00000656  00000-0 -23128-4 0  9995,2 51461  53.2191  56.2311 0001115  88.0540 272.0579 15.08848541 76932,6917.854,95.437,540.491,538.948,0.0
51461.0,STARLINK-3181,PAYLOAD,2023-06-20 23:07:42,15.08851037,0.0001107,53.2186,55.6366,87.0202,273.0917,5.8911e-06,-1.94e-06,0.0,0 STARLINK-3181,1 51461U 22010F   23171.96368829 -.00000194  00000-0  58911-5 0  9991,2 51461  53.2186  55.6366 0001107  87.0202 273.0917 15.08851037 77453,6917.847,95.437,540.477,538.946,0.0
51461.0,STARLINK-3181,PAYLOAD,2023-06-21 19:47:44,15.0883698,0.0001065,53.2186,51.7708,84.0065,276.1048,3.3759e-05,2.49e-06,0.0,0 STARLINK-3181,1 51461U 22010F   23172.82481730  .00000249  00000-0  33759-4 0  9996,2 51461  53.2186  51.7708 0001065  84.0065 276.1048 15.08836980 77085,6917.89,95.438,540.491,539.018,0.0
51461.0,STARLINK-3181,PAYLOAD,2023-06-22 00:33:53,15.08843291,0.000102,53.2184,50.8812,85.2912,274.8197,6.1506e-05,6.91e-06,0.0,0 STARLINK-3181,1 51461U 22010F   23173.02353284  .00000691  00000-0  61506-4 0  9993,2 51461  53.2184  50.8812 0001020  85.2912 274.8197 15.08843291 77616,6917.87,95.437,540.441,539.03,0.0
51461.0,STARLINK-3181,PAYLOAD,2023-06-23 02:00:03,15.08845904,9.95e-05,53.2181,46.1235,84.2621,275.8485,7.555e-05,9.15e-06,0.0,0 STARLINK-3181,1 51461U 22010F   23174.08337253  .00000915  00000-0  75550-4 0  9991,2 51461  53.2181  46.1235 0000995  84.2621 275.8485 15.08845904 77777,6917.862,95.437,540.416,539.039,0.0
51461.0,STARLINK-3181,PAYLOAD,2023-06-23 08:21:36,15.08838321,9.33e-05,53.2166,44.9333,85.1346,274.9752,1.623e-05,-2.9e-07,0.0,0 STARLINK-3181,1 51461U 22010F   23174.34833553 -.00000029  00000-0  16230-4 0  9991,2 51461  53.2166  44.9333 0000933  85.1346 274.9752 15.08838321 77818,6917.886,95.438,540.396,539.105,0.0
